     2              NAVIGATION DATA                         RINEX VERSION / TYPE
CCRINEXN V1.6.0 UX  CDDIS               31-MAY-09 02:51     PGM / RUN BY / DATE 
IGS BROADCAST EPHEMERIS FILE                                COMMENT             
    0.6519E-08  0.2235E-07 -0.5960E-07 -0.1192E-06          ION ALPHA           
    0.8602E+05  0.9830E+05 -0.6554E+05 -0.5243E+06          ION BETA            
   -0.931322574616E-09 0.888178419700E-15    61440     1534 DELTA-UTC: A0,A1,T,W
    15                                                      LEAP SECONDS        
                                                            END OF HEADER       
15 09  5 30 16  0  0.0-0.296567566693E-03-0.352429196937E-11 0.000000000000E+00
    0.440000000000E+02 0.354062500000E+02 0.464305054455E-08 0.310064814982E+01
    0.186823308468E-05 0.143573340029E-02 0.100191682577E-04 0.515362482834E+04
    0.576000000000E+06-0.484287738800E-07 0.168121042724E+01 0.335276126862E-07
    0.956210839482E+00 0.184187500000E+03-0.466983171038E+00-0.808997983728E-08
   -0.478591363823E-10 0.100000000000E+01 0.153300000000E+04 0.000000000000E+00
    0.200000000000E+01 0.000000000000E+00-0.977888703346E-08 0.440000000000E+02
    0.573450000000E+06 0.000000000000E+00 0.000000000000E+00 0.000000000000E+00
16 09  5 30 16  0  0.0 0.464604236186E-04-0.341060513165E-11 0.000000000000E+00
    0.380000000000E+02-0.751875000000E+02 0.427053502778E-08-0.168739865118E+01
   -0.390037894249E-05 0.536730571184E-02 0.720843672752E-05 0.515355644798E+04
    0.576000000000E+06-0.800937414169E-07-0.247119101914E+01-0.745058059692E-08
    0.968571637056E+00 0.246843750000E+03-0.352925206443E+00-0.805426406386E-08
   -0.732173355102E-10 0.100000000000E+01 0.153300000000E+04 0.000000000000E+00
    0.240000000000E+01 0.000000000000E+00-0.977888703346E-08 0.380000000000E+02
    0.568806000000E+06 0.400000000000E+01 0.000000000000E+00 0.000000000000E+00
17 09  5 30 16  0  0.0 0.616922043264E-04 0.193267624127E-11 0.000000000000E+00
    0.660000000000E+02-0.415625000000E+01 0.419338895720E-08-0.280182601052E+01
   -0.208616256714E-06 0.450851372443E-02 0.117160379887E-04 0.515369228363E+04
    0.576000000000E+06-0.149011611938E-07-0.142878134817E+01 0.130385160446E-07
    0.959362833998E+00 0.152531250000E+03-0.264059277364E+01-0.779675333750E-08
    0.298226708054E-09 0.100000000000E+01 0.153300000000E+04 0.000000000000E+00
    0.200000000000E+01 0.000000000000E+00-0.102445483208E-07 0.660000000000E+02
    0.568800000000E+06 0.000000000000E+00 0.000000000000E+00 0.000000000000E+00
18 09  5 30 16  0  0.0-0.524651259184E-04 0.329691829393E-11 0.000000000000E+00
    0.500000000000E+01-0.787500000000E+01 0.520200239857E-08-0.150278295827E+01
   -0.376254320145E-06 0.104147624224E-01 0.640936195850E-05 0.515359593391E+04
    0.576000000000E+06 0.203028321266E-06 0.677612998421E+00-0.633299350738E-07
    0.942531878110E+00 0.243000000000E+03-0.242178204942E+01-0.835570519152E-08
   -0.184650548579E-09 0.100000000000E+01 0.153300000000E+04 0.000000000000E+00
    0.200000000000E+01 0.000000000000E+00-0.107102096081E-07 0.500000000000E+01
    0.568818000000E+06 0.400000000000E+01 0.000000000000E+00 0.000000000000E+00
19 09  5 30 16  0  0.0 0.241054221988E-04-0.125055521494E-11 0.000000000000E+00
    0.800000000000E+02 0.125000000000E+01 0.443375602899E-08 0.287059335825E+01
    0.912696123123E-07 0.562470196746E-02 0.104364007711E-04 0.515361275864E+04
    0.576000000000E+06-0.335276126862E-07-0.137271465437E+01 0.391155481338E-07
    0.957076897226E+00 0.174093750000E+03-0.358625336539E+00-0.791354359819E-08
    0.213223161349E-09 0.100000000000E+01 0.153300000000E+04 0.000000000000E+00
    0.200000000000E+01 0.000000000000E+00-0.144354999065E-07 0.800000000000E+02
    0.568818000000E+06 0.400000000000E+01 0.000000000000E+00 0.000000000000E+00
20 09  5 30 16  0  0.0 0.812485814094E-04-0.102318153950E-11 0.000000000000E+00
    0.910000000000E+02-0.190625000000E+01 0.522950354410E-08-0.136056024966E+01
    0.409781932831E-07 0.396811706014E-02 0.704824924469E-05 0.515360090637E+04
    0.576000000000E+06-0.186264514923E-07 0.623782907405E+00 0.117346644402E-06
    0.942203053625E+00 0.236593750000E+03 0.136424100861E+01-0.840499295884E-08
   -0.258939357292E-09 0.100000000000E+01 0.153300000000E+04 0.000000000000E+00
    0.200000000000E+01 0.000000000000E+00-0.651925802231E-08 0.910000000000E+02
    0.568800000000E+06 0.000000000000E+00 0.000000000000E+00 0.000000000000E+00
21 09  5 30 16  0  0.0 0.111381523311E-04-0.204636307899E-11 0.000000000000E+00
    0.360000000000E+02 0.435937500000E+02 0.548165690444E-08-0.219129175153E+00
    0.252202153206E-05 0.152983275475E-01 0.665150582790E-05 0.515360675812E+04
    0.576000000000E+06 0.106170773506E-06-0.380353140058E+00 0.173225998878E-06
    0.934171359804E+00 0.238062500000E+03-0.259924028397E+01-0.875143596101E-08
    0.289654922433E-09 0.100000000000E+01 0.153300000000E+04 0.000000000000E+00
    0.200000000000E+01 0.000000000000E+00-0.121071934700E-07 0.360000000000E+02
    0.568818000000E+06 0.400000000000E+01 0.000000000000E+00 0.000000000000E+00
22 09  5 30 16  0  0.0 0.198570080101E-03-0.795807864051E-12 0.000000000000E+00
    0.600000000000E+02-0.984375000000E+01 0.525236165672E-08-0.253753668446E+01
   -0.601634383202E-06 0.500263506547E-02 0.658445060253E-05 0.515365613365E+04
    0.576000000000E+06 0.113621354103E-06 0.683292140032E+00 0.149011611938E-07
    0.940192307835E+00 0.239750000000E+03-0.188528732375E+01-0.839177793921E-08
   -0.216437590073E-09 0.100000000000E+01 0.153300000000E+04 0.000000000000E+00
    0.280000000000E+01 0.000000000000E+00-0.176951289177E-07 0.600000000000E+02
    0.568818000000E+06 0.400000000000E+01 0.000000000000E+00 0.000000000000E+00
23 09  5 30 16  0  0.0 0.390157103539E-03 0.113686837722E-12 0.000000000000E+00
    0.690000000000E+02 0.436562500000E+02 0.438803992233E-08 0.232988122701E+01
    0.241212546825E-05 0.613116170280E-02 0.888295471668E-05 0.515361104011E+04
    0.576000000000E+06-0.372529029846E-08 0.170122461095E+01 0.186264514923E-06
    0.970181132213E+00 0.216531250000E+03 0.288492076830E+01-0.799104714490E-08
   -0.603596570791E-10 0.100000000000E+01 0.153300000000E+04 0.000000000000E+00
    0.200000000000E+01 0.000000000000E+00-0.200234353542E-07 0.690000000000E+02
    0.568800000000E+06 0.000000000000E+00 0.000000000000E+00 0.000000000000E+00
24 09  5 30 16  0  0.0 0.192901119590E-03 0.295585778076E-11 0.000000000000E+00
    0.560000000000E+02 0.429375000000E+02 0.504235289138E-08-0.157955435944E+01
    0.217743217945E-05 0.670560158323E-02 0.709295272827E-05 0.515367361641E+04
    0.576000000000E+06-0.141561031342E-06-0.348182452362E+00-0.968575477600E-07
    0.950824682327E+00 0.241156250000E+03-0.650022110362E+00-0.835463371831E-08
    0.319299014371E-09 0.100000000000E+01 0.153300000000E+04 0.000000000000E+00
    0.200000000000E+01 0.000000000000E+00-0.139698386192E-08 0.560000000000E+02
    0.568818000000E+06 0.400000000000E+01 0.000000000000E+00 0.000000000000E+00
25 09  5 30 16  0  0.0 0.438458751887E-03 0.188720150618E-10 0.000000000000E+00
    0.640000000000E+02 0.201562500000E+02 0.457483341732E-08-0.108482301324E+01
    0.109151005745E-05 0.114106227411E-01 0.499561429024E-05 0.515365055275E+04
    0.576000000000E+06-0.139698386192E-06 0.264889812092E+01-0.279396772385E-07
    0.969819841186E+00 0.287812500000E+03-0.120718954207E+01-0.845499504162E-08
    0.128219626576E-09 0.100000000000E+01 0.153300000000E+04 0.000000000000E+00
    0.200000000000E+01 0.000000000000E+00-0.745058059692E-08 0.640000000000E+02
    0.568800000000E+06 0.000000000000E+00 0.000000000000E+00 0.000000000000E+00
26 09  5 30 16  0  0.0 0.624782405794E-04 0.102318153950E-11 0.000000000000E+00
    0.990000000000E+02 0.264062500000E+02 0.386123226439E-08 0.995632422121E+00
    0.173225998879E-05 0.204136384418E-01 0.107455998659E-04 0.515489521408E+04
    0.576000000000E+06-0.255182385445E-06 0.175095020002E+01 0.150874257088E-06
    0.992519366095E+00 0.195406250000E+03 0.101048860391E+01-0.803676333488E-08
   -0.197865384745E-09 0.100000000000E+01 0.153300000000E+04 0.000000000000E+00
    0.280000000000E+01 0.000000000000E+00-0.651925802231E-08 0.990000000000E+02
    0.568818000000E+06 0.400000000000E+01 0.000000000000E+00 0.000000000000E+00
27 09  5 30 16  0  0.0 0.532818958163E-04 0.306954461848E-11 0.000000000000E+00
    0.790000000000E+02 0.296875000000E+02 0.436911056242E-08-0.310014532586E+01
    0.168196856976E-05 0.212925979868E-01 0.496953725815E-05 0.515379030991E+04
    0.576000000000E+06 0.413507223129E-06 0.268527688662E+01-0.931322574616E-08
    0.974557559903E+00 0.284312500000E+03-0.159140004162E+01-0.790747223510E-08
    0.160006664920E-09 0.100000000000E+01 0.153300000000E+04 0.000000000000E+00
    0.200000000000E+01 0.000000000000E+00-0.419095158577E-08 0.790000000000E+02
    0.568818000000E+06 0.400000000000E+01 0.000000000000E+00 0.000000000000E+00
28 09  5 30 16  0  0.0-0.251322053373E-04-0.227373675443E-12 0.000000000000E+00
    0.610000000000E+02-0.853437500000E+02 0.421410410578E-08-0.228526239236E+01
   -0.440515577793E-05 0.148821548792E-01 0.737234950066E-05 0.515364808655E+04
    0.576000000000E+06 0.135973095894E-06-0.246301420092E+01-0.707805156708E-07
    0.966764805955E+00 0.238312500000E+03-0.202393240036E+01-0.780425364992E-08
   -0.140720147273E-09 0.100000000000E+01 0.153300000000E+04 0.000000000000E+00
    0.280000000000E+01 0.000000000000E+00-0.107102096081E-07 0.610000000000E+02
    0.568800000000E+06 0.000000000000E+00 0.000000000000E+00 0.000000000000E+00
